OBJECT_NAME,OBJECT_ID,EPOCH,MEAN_MOTION,ECCENTRICITY,INCLINATION,RA_OF_ASC_NODE,ARG_OF_PERICENTER,MEAN_ANOMALY,EPHEMERIS_TYPE,CLASSIFICATION_TYPE,NORAD_CAT_ID,ELEMENT_SET_NO,REV_AT_EPOCH,BSTAR,MEAN_MOTION_DOT,MEAN_MOTION_DDOT
SKYSAT-C1,2016-040C,2026-07-09T08:37:19.298496,15.36681886,.00009197,96.9561,220.8806,6.2368,353.8888,0,U,41601,999,56127,.19474005E-3,.6902E-4,0
LAPAN-A3,2016-040E,2026-07-10T07:05:24.851328,15.33258230,.00083369,97.1498,186.6848,297.5877,62.4519,0,U,41603,999,55835,.73385704E-4,.2285E-4,0
GAOFEN-3,2016-049A,2026-07-10T07:48:51.158304,14.42218999,.00017782,98.4020,198.7623,88.8393,271.3001,0,U,41727,999,52198,.80832611E-4,.223E-5,0
SKYSAT-C4,2016-058B,2026-07-10T07:56:08.357856,15.49327873,.0003294,96.9171,212.1432,125.0872,235.0690,0,U,41771,999,54905,.24128845E-3,.13127E-3,0
SKYSAT-C5,2016-058C,2026-07-09T22:14:08.690208,15.33955160,.00020348,97.0465,230.5527,135.3938,224.7470,0,U,41772,999,54723,.22859962E-3,.7436E-4,0
SKYSAT-C2,2016-058D,2026-07-08T23:51:39.410496,15.42580195,.00022198,97.0167,211.2736,17.2519,342.8804,0,U,41773,999,54841,.20101756E-3,.8655E-4,0
SKYSAT-C3,2016-058E,2026-07-10T00:24:41.926752,15.53540793,.00021894,96.9003,220.9981,133.5121,226.6316,0,U,41774,999,54965,.284373E-3,.18005E-3,0
ALSAT-1B,2016-059C,2026-07-10T06:42:40.718016,14.72292834,.00099834,97.7759,199.0469,144.0471,216.1411,0,U,41785,999,52397,.57838126E-4,.319E-5,0
PATHFINDER 1,2016-059E,2026-07-09T16:52:09.502464,14.67689171,.00295437,97.8173,188.9636,132.4766,227.8944,0,U,41787,999,52301,.76166385E-4,.39E-5,0
SCATSAT 1,2016-059H,2026-07-10T03:21:02.698848,14.79579540,.00548444,98.1179,255.1415,172.7125,187.4896,0,U,41790,999,10498,.11605942E-3,.834E-5,0
GOKTURK 1A,2016-073A,2026-07-10T07:08:46.097664,14.62791488,.00014358,98.1221,85.6069,78.1221,282.0142,0,U,41875,999,51220,.69396333E-4,.307E-5,0
RESOURCESAT-2A,2016-074A,2026-07-10T07:07:39.573984,14.21607506,.00026693,98.7519,264.6120,39.3682,320.7689,0,U,41877,999,49758,-.37584111E-4,-.127E-5,0
CARTOSAT-2D,2017-008A,2026-07-10T06:38:24.346752,15.19259457,.00056612,97.4098,250.1496,152.3951,207.7586,0,U,41948,999,52108,.46613857E-4,.915E-5,0
SENTINEL-2B,2017-013A,2026-07-10T06:49:33.993408,14.30813652,.00012074,98.5683,265.7324,91.0331,269.0991,0,U,42063,999,48794,-.4850654E-4,-.171E-5,0
CARTOSAT-2E,2017-036C,2026-07-10T07:03:51.352704,15.19230900,.00028243,97.4268,250.7141,208.1436,151.9647,0,U,42767,999,50165,.79216375E-4,.1601E-4,0
FORMOSAT-5,2017-049A,2026-07-10T07:02:35.186784,14.50906979,.00116752,98.2247,266.0893,18.7216,341.4407,0,U,42920,999,47002,.24491267E-4,.53E-6,0
SENTINEL-5P,2017-064A,2026-07-10T06:01:06.740544,14.19522784,.00011175,98.7929,133.2186,92.4303,267.7001,0,U,42969,999,45283,.24663541E-4,.8E-7,0
SKYSAT-C11,2017-068A,2026-07-09T15:48:01.789056,15.59105762,.00008121,97.4368,340.4901,166.0165,194.1114,0,U,42987,999,48674,.27644744E-3,.21499E-3,0
SKYSAT-C10,2017-068B,2026-07-09T15:42:35.169408,15.35042344,.00013609,97.4523,327.7297,109.0541,251.0850,0,U,42988,999,48580,.23222205E-3,.7814E-4,0
SKYSAT-C9,2017-068C,2026-07-09T15:06:23.132160,15.42121068,.00090649,97.4443,328.8561,62.2816,297.9350,0,U,42989,999,48621,.2150963E-3,.913E-4,0
SKYSAT-C8,2017-068D,2026-07-09T15:45:21.893760,15.37418486,.00012242,97.4543,327.6181,99.9689,260.1694,0,U,42990,999,48576,.20711554E-3,.7514E-4,0
SKYSAT-C7,2017-068E,2026-07-10T04:06:59.264064,15.37378749,.00061426,97.4551,329.1314,37.9429,322.2247,0,U,42991,999,48590,.20467599E-3,.7419E-4,0
SKYSAT-C6,2017-068F,2026-07-09T15:34:22.752480,15.34106572,.00051627,97.4588,328.4799,103.1836,256.9983,0,U,42992,999,48576,.19987016E-3,.6518E-4,0
CARTOSAT-2F,2018-004A,2026-07-10T06:15:57.750912,15.19243927,.00023827,97.4777,250.6688,146.3595,213.7791,0,U,43111,999,47083,.54612274E-4,.1082E-4,0
GAOFEN-1 02,2018-031A,2026-07-10T08:10:33.926016,14.76469031,.00016969,98.0516,253.8019,314.5251,45.5819,0,U,43259,999,44611,.12243364E-3,.801E-5,0
GAOFEN-1 03,2018-031B,2026-07-10T07:38:59.022816,14.76458419,.00027977,98.0506,253.6357,28.7408,331.3955,0,U,43260,999,44610,.6777269E-4,.42E-5,0
GAOFEN-1 04,2018-031D,2026-07-10T07:04:02.074080,14.76467990,.00015138,98.0518,253.8054,58.6911,301.4447,0,U,43262,999,44609,.86725207E-4,.552E-5,0
SENTINEL-3B,2018-039A,2026-07-09T10:06:02.564928,14.26741005,.00010167,98.6239,257.6331,120.0757,240.0524,0,U,43437,999,42729,.40006667E-4,.53E-6,0
GAOFEN-5 01,2018-043A,2026-07-09T16:02:21.142464,14.60621115,.00023973,98.4586,162.7286,43.0598,317.0789,0,U,43461,999,43497,.53023303E-4,.209E-5,0
GAOFEN-6,2018-048A,2026-07-10T07:36:05.991264,14.76378602,.00121337,98.0959,254.0071,95.3008,264.9586,0,U,43484,999,43680,.5617274E-5,-.13E-6,0
